[
    {
        "Altitude(m)": 604234.6105159026,
        "Argument of Periapsis(deg)": 0.0,
        "Eccentricity": 0.0,
        "Inclination(deg)": 60.0,
        "Latitude(deg)": 14.117243098723348,
        "Longitude(deg)": 176.7273555170763,
        "Mean Anomaly(deg)": 163.63639999999998,
        "RAAN(deg)": 105.0,
        "Satellite Name": "Test1 472",
        "Satellite Number": 472,
        "Semi-Major Axis(m)": 6980739.136638005,
        "Time(s)": 0
    },
    {
        "Altitude(m)": 604223.4389437917,
        "Argument of Periapsis(deg)": 0.00010418945913296404,
        "Eccentricity": 0.0,
        "Inclination(deg)": 60.0,
        "Latitude(deg)": 13.582378899980618,
        "Longitude(deg)": 177.01426359188002,
        "Mean Anomaly(deg)": 164.25650614546183,
        "RAAN(deg)": 104.99957995086028,
        "Satellite Name": "Test1 472",
        "Satellite Number": 472,
        "Semi-Major Axis(m)": 6980739.136638005,
        "Time(s)": 10
    }
]